[{"OBJECT_NAME":"STARLINK-30069","OBJECT_ID":"2023-079M","EPOCH":"2026-03-08T11:34:15.947328","MEAN_MOTION":15.26726881,"ECCENTRICITY":4.69e-5,"INCLINATION":42.9986,"RA_OF_ASC_NODE":110.4464,"ARG_OF_PERICENTER":272.6695,"MEAN_ANOMALY":87.4103,"EPHEMERIS_TYPE":0,"CLASSIFICATION_TYPE":"U","NORAD_CAT_ID":56834,"ELEMENT_SET_NO":999,"REV_AT_EPOCH":15274,"BSTAR":-8.0472e-5,"MEAN_MOTION_DOT":-2.416e-5,"MEAN_MOTION_DDOT":0},{"OBJECT_NAME":"STARLINK-32788","OBJECT_ID":"2025-003R","EPOCH":"2026-03-09T22:59:49.827840","MEAN_MOTION":15.2759098,"ECCENTRICITY":7.027e-5,"INCLINATION":42.9941,"RA_OF_ASC_NODE":287.3671,"ARG_OF_PERICENTER":7.8344,"MEAN_ANOMALY":352.2518,"EPHEMERIS_TYPE":0,"CLASSIFICATION_TYPE":"U","NORAD_CAT_ID":62502,"ELEMENT_SET_NO":999,"REV_AT_EPOCH":6659,"BSTAR":0.00084614204,"MEAN_MOTION_DOT":0.00023103,"MEAN_MOTION_DDOT":0}]
